{
    "links": {
        "self": "http://www.neowsapp.com/rest/v1/neo/3699477?api_key=iIulBulltgU6a56xZRHN4H3l9WmuAYTsLGpBGhQ2"
    },
    "id": "3699477",
    "neo_reference_id": "3699477",
    "name": "(2014 WT363)",
    "designation": "2014 WT363",
    "nasa_jpl_url": "http://ssd.jpl.nasa.gov/sbdb.cgi?sstr=3699477",
    "absolute_magnitude_h": 20.8,
    "estimated_diameter": {
        "kilometers": {
            "estimated_diameter_min": 0.1838886721,
            "estimated_diameter_max": 0.411187571
        },
        "meters": {
            "estimated_diameter_min": 183.8886720703,
            "estimated_diameter_max": 411.1875710413
        },
        "miles": {
            "estimated_diameter_min": 0.1142630881,
            "estimated_diameter_max": 0.2555000322
        },
        "feet": {
            "estimated_diameter_min": 603.309310875,
            "estimated_diameter_max": 1349.040630575
        }
    },
    "is_potentially_hazardous_asteroid": false,
    "close_approach_data": [
        {
            "close_approach_date": "1981-11-01",
            "close_approach_date_full": "1981-Nov-01 08:24",
            "epoch_date_close_approach": 373451040000,
            "relative_velocity": {
                "kilometers_per_second": "12.4153537847",
                "kilometers_per_hour": "44695.2736250456",
                "miles_per_hour": "27771.9048810735"
            },
            "miss_distance": {
                "astronomical": "0.3032353035",
                "lunar": "117.9585330615",
                "kilometers": "45363355.512403545",
                "miles": "28187482.044497121"
            },
            "orbiting_body": "Earth"
        },
        {
            "close_approach_date": "2004-10-28",
            "close_approach_date_full": "2004-Oct-28 03:50",
            "epoch_date_close_approach": 1098935400000,
            "relative_velocity": {
                "kilometers_per_second": "14.1297113997",
                "kilometers_per_hour": "50866.9610389589",
                "miles_per_hour": "31606.7514300131"
            },
            "miss_distance": {
                "astronomical": "0.4663333916",
                "lunar": "181.4036893324",
                "kilometers": "69762482.093235892",
                "miles": "43348396.2808916296"
            },
            "orbiting_body": "Earth"
        },
        {
            "close_approach_date": "2014-11-04",
            "close_approach_date_full": "2014-Nov-04 04:54",
            "epoch_date_close_approach": 1415076840000,
            "relative_velocity": {
                "kilometers_per_second": "12.5596732843",
                "kilometers_per_hour": "45214.8238234033",
                "miles_per_hour": "28094.733169603"
            },
            "miss_distance": {
                "astronomical": "0.3963842055",
                "lunar": "154.1934559395",
                "kilometers": "59298232.844442285",
                "miles": "36846213.307922133"
            },
            "orbiting_body": "Earth"
        }
    ],
    "orbital_data": {
        "orbit_id": "5",
        "orbit_determination_date": "2017-04-06 08:37:09",
        "first_observation_date": "2014-11-22",
        "last_observation_date": "2014-12-15",
        "data_arc_in_days": 23,
        "observations_used": 19,
        "orbit_uncertainty": "7",
        "minimum_orbit_intersection": ".292982",
        "jupiter_tisserand_invariant": "3.436",
        "epoch_osculation": "2459000.5",
        "eccentricity": ".4218285639229088",
        "semi_major_axis": "2.214975322063627",
        "inclination": "23.2915253260918",
        "ascending_node_longitude": "222.5793123032538",
        "orbital_period": "1204.070080141422",
        "perihelion_distance": "1.280635462832845",
        "perihelion_argument": "169.2387560355971",
        "aphelion_distance": "3.149315181294409",
        "perihelion_time": "2459346.045500658615",
        "mean_anomaly": "256.686760771856",
        "mean_motion": ".2989859194555493",
        "equinox": "J2000",
        "orbit_class": {
            "orbit_class_type": "AMO",
            "orbit_class_description": "Near-Earth asteroid orbits similar to that of 1221 Amor",
            "orbit_class_range": "1.017 AU < q (perihelion) < 1.3 AU"
        }
    },
    "is_sentry_object": false
}